{"type": "FeatureCollection", "features": [ {"type": "Feature", "properties": {"norad_id": 39778, "name": "IRIDIUM 33 DEB", "group": "iridium-33-debris", "lat": -2.2521389501332667, "lon": 46.23390659423904, "alt_km": 712.6943335412088, "timestamp": "2025-12-05T11:32:56.403181+00:00", "meta": {"OBJECT_NAME": "IRIDIUM 33 DEB", "OBJECT_ID": "1997-051AAK", "EPOCH": "2025-12-04T10:47:13.820928", "MEAN_MOTION": 14.54169384, "ECCENTRICITY": 0.0008763, "INCLINATION": 86.3786, "RA_OF_ASC_NODE": 46.8242, "ARG_OF_PERICENTER": 65.8882, "MEAN_ANOMALY": 294.3241, "EPHEMERIS_TYPE": 0, "CLASSIFICATION_TYPE": "U", "NORAD_CAT_ID": 39778, "ELEMENT_SET_NO": 999, "REV_AT_EPOCH": 60572, "BSTAR": 0.0021739, "MEAN_MOTION_DOT": 9.223e-05, "MEAN_MOTION_DDOT": 0}, "tle": {"line1": "1 39778U 97051AAK 25338.44946552  .00009223  00000+0  21739-2 0  9995", "line2": "2 39778  86.3786  46.8242 0008763  65.8882 294.3241 14.54169384605721"}}, "geometry": {"type": "Point", "coordinates": [46.23390659423904, -2.2521389501332667]}}, {"type": "Feature", "properties": {"norad_id": 39781, "name": "IRIDIUM 33 DEB", "group": "iridium-33-debris", "lat": -85.25430779842188, "lon": -148.91735484538637, "alt_km": 711.172327175027, "timestamp": "2025-12-05T11:32:56.403192+00:00", "meta": {"OBJECT_NAME": "IRIDIUM 33 DEB", "OBJECT_ID": "1997-051AAN", "EPOCH": "2025-12-01T14:05:13.737984", "MEAN_MOTION": 14.20093316, "ECCENTRICITY": 0.01818611, "INCLINATION": 86.3695, "RA_OF_ASC_NODE": 262.5729, "ARG_OF_PERICENTER": 308.3699, "MEAN_ANOMALY": 228.4219, "EPHEMERIS_TYPE": 0, "CLASSIFICATION_TYPE": "U", "NORAD_CAT_ID": 39781, "ELEMENT_SET_NO": 999, "REV_AT_EPOCH": 7948, "BSTAR": 0.0058998753, "MEAN_MOTION_DOT": 0.00014872, "MEAN_MOTION_DDOT": 0}, "tle": {"line1": "1 39781U 97051AAN 25335.58696456  .00014872  00000+0  58999-2 0  9990", "line2": "2 39781  86.3695 262.5729 0181861 308.3699 228.4219 14.20093316 79488"}}, "geometry": {"type": "Point", "coordinates": [-148.91735484538637, -85.25430779842188]}}, {"type": "Feature", "properties": {"norad_id": 39783, "name": "IRIDIUM 33 DEB", "group": "iridium-33-debris", "lat": -32.2738867590081, "lon": 81.5110637177083, "alt_km": 485.72859951639293, "timestamp": "2025-12-05T11:32:56.403202+00:00", "meta": {"OBJECT_NAME": "IRIDIUM 33 DEB", "OBJECT_ID": "1997-051AAQ", "EPOCH": "2025-11-16T15:05:40.850592", "MEAN_MOTION": 15.19327111, "ECCENTRICITY": 0.00057535, "INCLINATION": 86.1306, "RA_OF_ASC_NODE": 268.8004, "ARG_OF_PERICENTER": 179.9151, "MEAN_ANOMALY": 1.8316, "EPHEMERIS_TYPE": 0, "CLASSIFICATION_TYPE": "U", "NORAD_CAT_ID": 39783, "ELEMENT_SET_NO": 999, "REV_AT_EPOCH": 60401, "BSTAR": 0.010398125, "MEAN_MOTION_DOT": 0.00226179, "MEAN_MOTION_DDOT": 0}, "tle": {"line1": "1 39783U 97051AAQ 25320.62894503  .00226179  00000+0  10398-1 0  9999", "line2": "2 39783  86.1306 268.8004 0005753 179.9151   1.8316 15.19327111604018"}}, "geometry": {"type": "Point", "coordinates": [81.5110637177083, -32.2738867590081]}}, {"type": "Feature", "properties": {"norad_id": 40996, "name": "IRIDIUM 33 DEB", "group": "iridium-33-debris", "lat": -84.18391949328218, "lon": -33.97532558973737, "alt_km": 596.5686736882972, "timestamp": "2025-12-05T11:32:56.403213+00:00", "meta": {"OBJECT_NAME": "IRIDIUM 33 DEB", "OBJECT_ID": "1997-051ABJ", "EPOCH": "2025-12-02T08:31:11.979264", "MEAN_MOTION": 14.95250831, "ECCENTRICITY": 0.00120962, "INCLINATION": 86.3524, "RA_OF_ASC_NODE": 6.2584, "ARG_OF_PERICENTER": 92.2467, "MEAN_ANOMALY": 284.2756, "EPHEMERIS_TYPE": 0, "CLASSIFICATION_TYPE": "U", "NORAD_CAT_ID": 40996, "ELEMENT_SET_NO": 999, "REV_AT_EPOCH": 62333, "BSTAR": 0.0031243939, "MEAN_MOTION_DOT": 0.0003457, "MEAN_MOTION_DDOT": 0}, "tle": {"line1": "1 40996U 97051ABJ 25336.35499976  .00034570  00000+0  31244-2 0  9995", "line2": "2 40996  86.3524   6.2584 0012096  92.2467 284.2756 14.95250831623330"}}, "geometry": {"type": "Point", "coordinates": [-33.97532558973737, -84.18391949328218]}}, {"type": "Feature", "properties": {"norad_id": 40998, "name": "IRIDIUM 33 DEB", "group": "iridium-33-debris", "lat": -75.77982879040125, "lon": -108.79175391784217, "alt_km": 755.3991744212963, "timestamp": "2025-12-05T11:32:56.403223+00:00", "meta": {"OBJECT_NAME": "IRIDIUM 33 DEB", "OBJECT_ID": "1997-051ABL", "EPOCH": "2025-12-03T12:06:12.154176", "MEAN_MOTION": 14.45043538, "ECCENTRICITY": 0.00095708, "INCLINATION": 86.3836, "RA_OF_ASC_NODE": 57.6004, "ARG_OF_PERICENTER": 108.6038, "MEAN_ANOMALY": 309.9308, "EPHEMERIS_TYPE": 0, "CLASSIFICATION_TYPE": "U", "NORAD_CAT_ID": 40998, "ELEMENT_SET_NO": 999, "REV_AT_EPOCH": 6548, "BSTAR": 0.00081638604, "MEAN_MOTION_DOT": 2.87e-05, "MEAN_MOTION_DDOT": 0}, "tle": {"line1": "1 40998U 97051ABL 25337.50430734  .00002870  00000+0  81639-3 0  9994", "line2": "2 40998  86.3836  57.6004 0009570 108.6038 309.9308 14.45043538 65487"}}, "geometry": {"type": "Point", "coordinates": [-108.79175391784217, -75.77982879040125]}}, {"type": "Feature", "properties": {"norad_id": 46435, "name": "IRIDIUM 33 DEB", "group": "iridium-33-debris", "lat": 74.9033318258932, "lon": 3.125284333175281, "alt_km": 926.872584400141, "timestamp": "2025-12-05T11:32:56.403233+00:00", "meta": {"OBJECT_NAME": "IRIDIUM 33 DEB", "OBJECT_ID": "1997-051ABN", "EPOCH": "2025-12-01T21:34:01.840224", "MEAN_MOTION": 14.31281633, "ECCENTRICITY": 0.02132677, "INCLINATION": 86.2832, "RA_OF_ASC_NODE": 198.6078, "ARG_OF_PERICENTER": 311.3277, "MEAN_ANOMALY": 63.4086, "EPHEMERIS_TYPE": 0, "CLASSIFICATION_TYPE": "U", "NORAD_CAT_ID": 46435, "ELEMENT_SET_NO": 999, "REV_AT_EPOCH": 7761, "BSTAR": 0.0078564893, "MEAN_MOTION_DOT": 0.00026766, "MEAN_MOTION_DDOT": 0}, "tle": {"line1": "1 46435U 97051ABN 25335.89863241  .00026766  00000+0  78565-2 0  9992", "line2": "2 46435  86.2832 198.6078 0213267 311.3277  63.4086 14.31281633 77617"}}, "geometry": {"type": "Point", "coordinates": [3.125284333175281, 74.9033318258932]}}, {"type": "Feature", "properties": {"norad_id": 46734, "name": "IRIDIUM 33 DEB", "group": "iridium-33-debris", "lat": 39.29719010624631, "lon": 9.116333830654433, "alt_km": 727.8332617114838, "timestamp": "2025-12-05T11:32:56.403243+00:00", "meta": {"OBJECT_NAME": "IRIDIUM 33 DEB", "OBJECT_ID": "1997-051ABR", "EPOCH": "2025-12-03T20:12:35.443296", "MEAN_MOTION": 14.41795233, "ECCENTRICITY": 0.00394426, "INCLINATION": 86.2642, "RA_OF_ASC_NODE": 6.7702, "ARG_OF_PERICENTER": 5.4679, "MEAN_ANOMALY": 171.2392, "EPHEMERIS_TYPE": 0, "CLASSIFICATION_TYPE": "U", "NORAD_CAT_ID": 46734, "ELEMENT_SET_NO": 999, "REV_AT_EPOCH": 62882, "BSTAR": 0.0014594249, "MEAN_MOTION_DOT": 4.83e-05, "MEAN_MOTION_DDOT": 0}, "tle": {"line1": "1 46734U 97051ABR 25337.84207689  .00004830  00000+0  14594-2 0  9999", "line2": "2 46734  86.2642   6.7702 0039442   5.4679 171.2392 14.41795233628829"}}, "geometry": {"type": "Point", "coordinates": [9.116333830654433, 39.29719010624631]}}, {"type": "Feature", "properties": {"norad_id": 46965, "name": "IRIDIUM 33 DEB", "group": "iridium-33-debris", "lat": 56.40061232235761, "lon": -10.545974776887158, "alt_km": 679.9710377632791, "timestamp": "2025-12-05T11:32:56.403253+00:00", "meta": {"OBJECT_NAME": "IRIDIUM 33 DEB", "OBJECT_ID": "1997-051ABX", "EPOCH": "2025-12-01T19:17:57.587136", "MEAN_MOTION": 14.60159185, "ECCENTRICITY": 0.00196274, "INCLINATION": 86.3356, "RA_OF_ASC_NODE": 345.5484, "ARG_OF_PERICENTER": 10.7692, "MEAN_ANOMALY": 169.2127, "EPHEMERIS_TYPE": 0, "CLASSIFICATION_TYPE": "U", "NORAD_CAT_ID": 46965, "ELEMENT_SET_NO": 999, "REV_AT_EPOCH": 62108, "BSTAR": 0.00078040871, "MEAN_MOTION_DOT": 3.788e-05, "MEAN_MOTION_DDOT": 0}, "tle": {"line1": "1 46965U 97051ABX 25335.80413874  .00003788  00000+0  78041-3 0  9993", "line2": "2 46965  86.3356 345.5484 0019627  10.7692 169.2127 14.60159185621081"}}, "geometry": {"type": "Point", "coordinates": [-10.545974776887158, 56.40061232235761]}}, {"type": "Feature", "properties": {"norad_id": 46971, "name": "IRIDIUM 33 DEB", "group": "iridium-33-debris", "lat": -60.138142880898506, "lon": 162.92956180584076, "alt_km": 584.3136693144306, "timestamp": "2025-12-05T11:32:56.403263+00:00", "meta": {"OBJECT_NAME": "IRIDIUM 33 DEB", "OBJECT_ID": "1997-051ACD", "EPOCH": "2025-11-30T18:57:44.502624", "MEAN_MOTION": 14.96904917, "ECCENTRICITY": 0.00065248, "INCLINATION": 86.3392, "RA_OF_ASC_NODE": 338.7285, "ARG_OF_PERICENTER": 8.9727, "MEAN_ANOMALY": 165.6369, "EPHEMERIS_TYPE": 0, "CLASSIFICATION_TYPE": "U", "NORAD_CAT_ID": 46971, "ELEMENT_SET_NO": 999, "REV_AT_EPOCH": 64051, "BSTAR": 0.0032009998, "MEAN_MOTION_DOT": 0.00036919, "MEAN_MOTION_DDOT": 0}, "tle": {"line1": "1 46971U 97051ACD 25334.79009841  .00036919  00000+0  32010-2 0  9999", "line2": "2 46971  86.3392 338.7285 0006524   8.9727 165.6369 14.96904917640518"}}, "geometry": {"type": "Point", "coordinates": [162.92956180584076, -60.138142880898506]}}, {"type": "Feature", "properties": {"norad_id": 46974, "name": "IRIDIUM 33 DEB", "group": "iridium-33-debris", "lat": -10.616813840274311, "lon": -70.86351366555552, "alt_km": 685.4181219194925, "timestamp": "2025-12-05T11:32:56.403274+00:00", "meta": {"OBJECT_NAME": "IRIDIUM 33 DEB", "OBJECT_ID": "1997-051ACG", "EPOCH": "2025-12-03T15:25:18.733152", "MEAN_MOTION": 14.43893104, "ECCENTRICITY": 0.00960014, "INCLINATION": 86.2979, "RA_OF_ASC_NODE": 109.2433, "ARG_OF_PERICENTER": 216.6177, "MEAN_ANOMALY": 142.8439, "EPHEMERIS_TYPE": 0, "CLASSIFICATION_TYPE": "U", "NORAD_CAT_ID": 46974, "ELEMENT_SET_NO": 999, "REV_AT_EPOCH": 57377, "BSTAR": 0.0066247967, "MEAN_MOTION_DOT": 0.0002397, "MEAN_MOTION_DDOT": 0}, "tle": {"line1": "1 46974U 97051ACG 25337.64257793  .00023970  00000+0  66248-2 0  9993", "line2": "2 46974  86.2979 109.2433 0096001 216.6177 142.8439 14.43893104573778"}}, "geometry": {"type": "Point", "coordinates": [-70.86351366555552, -10.616813840274311]}}]}